NORAD_CAT_ID,OBJECT_NAME,OBJECT_TYPE,EPOCH,MEAN_MOTION,ECCENTRICITY,INCLINATION,RA_OF_ASC_NODE,ARG_OF_PERICENTER,MEAN_ANOMALY,BSTAR,MEAN_MOTION_DOT,MEAN_MOTION_DDOT,TLE_LINE0,TLE_LINE1,TLE_LINE2,SEMIMAJOR_AXIS,PERIOD,APOGEE,PERIGEE,DECAYED
52626.0,STARLINK-3990,PAYLOAD,2023-08-15 05:48:24,15.08842822,0.0001265,53.2176,157.4879,91.621,268.4927,1.4634e-05,-5.5e-07,0.0,0 STARLINK-3990,1 52626U 22052AE  23227.24195050 -.00000055  00000-0  14634-4 0  9997,2 52626  53.2176 157.4879 0001265  91.6210 268.4927 15.08842822 69846,6917.872,95.437,540.612,538.862,0.0
52626.0,STARLINK-3990,PAYLOAD,2023-08-15 18:31:30,15.08832892,0.0001376,53.2178,155.1093,95.9708,264.1441,2.0367e-05,3.6e-07,0.0,0 STARLINK-3990,1 52626U 22052AE  23227.77187750  .00000036  00000-0  20367-4 0  9991,2 52626  53.2178 155.1093 0001376  95.9708 264.1441 15.08832892 69922,6917.902,95.438,540.719,538.815,0.0
52626.0,STARLINK-3990,PAYLOAD,2023-08-16 02:28:25,15.08840566,0.0001365,53.2178,153.623,96.0752,264.0395,3.9715e-05,3.44e-06,0.0,0 STARLINK-3990,1 52626U 22052AE  23228.10307258  .00000344  00000-0  39715-4 0  9995,2 52626  53.2178 153.6230 0001365  96.0752 264.0395 15.08840566 69976,6917.879,95.438,540.688,538.799,0.0
52626.0,STARLINK-3990,PAYLOAD,2023-08-16 05:39:11,15.08846035,0.0001333,53.2175,153.0274,92.8347,267.2798,8.2584e-05,1.027e-05,0.0,0 STARLINK-3990,1 52626U 22052AE  23228.23554782  .00001027  00000-0  82584-4 0  9996,2 52626  53.2175 153.0274 0001333  92.8347 267.2798 15.08846035 69995,6917.862,95.437,540.649,538.805,0.0
52626.0,STARLINK-3990,PAYLOAD,2023-08-17 02:19:13,15.08838374,0.0001642,53.2181,149.1619,81.6029,278.5149,2.2347e-05,6.8e-07,0.0,0 STARLINK-3990,1 52626U 22052AE  23229.09667896  .00000068  00000-0  22347-4 0  9997,2 52626  53.2181 149.1619 0001642  81.6029 278.5149 15.08838374 70126,6917.885,95.438,540.886,538.614,0.0
52626.0,STARLINK-3990,PAYLOAD,2023-08-17 03:54:35,15.08842844,0.0001617,53.218,148.8645,84.719,275.3986,5.8685e-05,6.46e-06,0.0,0 STARLINK-3990,1 52626U 22052AE  23229.16291478  .00000646  00000-0  58685-4 0  9990,2 52626  53.2180 148.8645 0001617  84.7190 275.3986 15.08842844 70137,6917.872,95.437,540.855,538.618,0.0
52626.0,STARLINK-3990,PAYLOAD,2023-08-18 03:45:22,15.08852009,0.0001448,53.2176,144.4034,87.9886,272.1272,9.8591e-05,1.282e-05,0.0,0 STARLINK-3990,1 52626U 22052AE  23230.15650648  .00001282  00000-0  98591-4 0  9996,2 52626  53.2176 144.4034 0001448  87.9886 272.1272 15.08852009 70288,6917.844,95.437,540.71,538.707,0.0
52626.0,STARLINK-3990,PAYLOAD,2023-08-19 00:25:23,15.08840802,0.0001468,53.2174,140.5383,98.1244,261.9915,-9.3456e-06,-4.37e-06,0.0,0 STARLINK-3990,1 52626U 22052AE  23231.01763735 -.00000437  00000-0 -93456-5 0  9993,2 52626  53.2174 140.5383 0001468  98.1244 261.9915 15.08840802 70417,6917.878,95.438,540.758,538.727,0.0
52626.0,STARLINK-3990,PAYLOAD,2023-08-20 17:45:25,15.08837168,0.000162,53.2175,132.8075,105.0242,255.093,5.0046e-05,5.08e-06,0.0,0 STARLINK-3990,1 52626U 22052AE  23232.73987792  .00000508  00000-0  50046-4 0  9998,2 52626  53.2175 132.8075 0001620 105.0242 255.0930 15.08837168 70676,6917.889,95.438,540.875,538.633,0.0
52626.0,STARLINK-3990,PAYLOAD,2023-08-21 23:57:45,15.0883725,0.0001657,53.2183,127.1576,95.8206,264.2975,3.3388e-05,2.43e-06,0.0,0 STARLINK-3990,1 52626U 22052AE  23233.99844113  .00000243  00000-0  33388-4 0  9992,2 52626  53.2183 127.1576 0001657  95.8206 264.2975 15.08837250 70868,6917.889,95.438,540.9,538.608,0.0
52626.0,STARLINK-3990,PAYLOAD,2023-08-22 23:48:32,15.08834685,0.0001463,53.2179,122.6965,83.515,276.6008,-3.9211e-05,-9.12e-06,0.0,0 STARLINK-3990,1 52626U 22052AE  23234.99204792 -.00000912  00000-0 -39211-4 0  9992,2 52626  53.2179 122.6965 0001463  83.5150 276.6008 15.08834685 71013,6917.897,95.438,540.774,538.75,0.0
52626.0,STARLINK-3990,PAYLOAD,2023-08-24 02:50:05,15.08846717,0.0001383,53.2178,117.6403,89.6071,270.508,7.0023e-05,8.27e-06,0.0,0 STARLINK-3990,1 52626U 22052AE  23236.11811803  .00000827  00000-0  70023-4 0  9994,2 52626  53.2178 117.6403 0001383  89.6071 270.5080 15.08846717 70801,6917.86,95.437,540.682,538.768,0.0
52626.0,STARLINK-3990,PAYLOAD,2023-08-24 23:30:06,15.08839369,0.0001251,53.2175,113.774,98.7367,261.3766,1.5692e-05,-3.8e-07,0.0,0 STARLINK-3990,1 52626U 22052AE  23236.97924547 -.00000038  00000-0  15692-4 0  9994,2 52626  53.2175 113.7740 0001251  98.7367 261.3766 15.08839369 71313,6917.882,95.438,540.613,538.882,0.0
52626.0,STARLINK-3990,PAYLOAD,2023-08-25 20:10:07,15.08841994,0.0001261,53.2174,109.9082,102.9438,257.1695,-2.6893e-05,-7.16e-06,0.0,0 STARLINK-3990,1 52626U 22052AE  23237.84036596 -.00000716  00000-0 -26893-4 0  9998,2 52626  53.2174 109.9082 0001261 102.9438 257.1695 15.08841994 71069,6917.874,95.437,540.612,538.867,0.0
52626.0,STARLINK-3990,PAYLOAD,2023-08-26 00:56:16,15.08846229,0.000138,53.2177,109.0161,90.5007,269.6144,1.6705e-05,-2.2e-07,0.0,0 STARLINK-3990,1 52626U 22052AE  23238.03908220 -.00000022  00000-0  16705-4 0  9992,2 52626  53.2177 109.0161 0001380  90.5007 269.6144 15.08846229 71475,6917.861,95.437,540.681,538.772,0.0
52626.0,STARLINK-3990,PAYLOAD,2023-08-26 18:25:31,15.08833077,0.0001397,53.2173,105.7463,87.5082,272.607,2.5802e-05,1.23e-06,0.0,0 STARLINK-3990,1 52626U 22052AE  23238.76772967  .00000123  00000-0  25802-4 0  9998,2 52626  53.2173 105.7463 0001397  87.5082 272.6070 15.08833077 71587,6917.902,95.438,540.733,538.8,0.0
52626.0,STARLINK-3990,PAYLOAD,2023-08-26 21:36:18,15.0879024,0.000162,53.2174,105.1522,91.694,268.4238,0.00062756,9.7e-05,0.0,0 STARLINK-3990,1 52626U 22052AE  23238.90021002  .00009700  00000-0  62756-3 0  9999,2 52626  53.2174 105.1522 0001620  91.6940 268.4238 15.08790240 71220,6918.032,95.441,541.018,538.777,0.0
52626.0,STARLINK-3990,PAYLOAD,2023-08-27 18:16:18,15.08844617,0.0001483,53.2174,101.2867,87.0364,273.0798,3.8444e-05,3.24e-06,0.0,0 STARLINK-3990,1 52626U 22052AE  23239.76132323  .00000324  00000-0  38444-4 0  9994,2 52626  53.2174 101.2867 0001483  87.0364 273.0798 15.08844617 71732,6917.866,95.437,540.757,538.705,0.0
52626.0,STARLINK-3990,PAYLOAD,2023-08-27 21:27:04,15.08844309,0.0001438,53.2176,100.6919,89.4942,270.6215,3.0854e-05,2.03e-06,0.0,0 STARLINK-3990,1 52626U 22052AE  23239.89380311  .00000203  00000-0  30854-4 0  9993,2 52626  53.2176 100.6919 0001438  89.4942 270.6215 15.08844309 71378,6917.867,95.437,540.727,538.737,0.0
52626.0,STARLINK-3990,PAYLOAD,2023-08-28 21:17:49,15.08870763,0.0001036,53.2178,96.2314,97.431,262.68,0.00025345,3.751e-05,0.0,0 STARLINK-3990,1 52626U 22052AE  23240.88737373  .00003751  00000-0  25345-3 0  9997,2 52626  53.2178  96.2314 0001036  97.4310 262.6800 15.08870763 71522,6917.786,95.436,540.368,538.935,0.0
52626.0,STARLINK-3990,PAYLOAD,2023-08-29 00:28:35,15.08872878,0.0001598,53.2182,95.6377,101.5937,258.5235,0.00026147,3.879e-05,0.0,0 STARLINK-3990,1 52626U 22052AE  23241.01984975  .00003879  00000-0  26147-3 0  9997,2 52626  53.2182  95.6377 0001598 101.5937 258.5235 15.08872878 71923,6917.78,95.435,540.75,538.539,0.0
52626.0,STARLINK-3990,PAYLOAD,2023-08-29 06:50:10,15.08838739,0.0002616,53.218,94.448,98.6776,261.4512,-2.6529e-05,-7.11e-06,0.0,0 STARLINK-3990,1 52626U 22052AE  23241.28484047 -.00000711  00000-0 -26529-4 0  9990,2 52626  53.2180  94.4480 0002616  98.6776 261.4512 15.08838739 71965,6917.884,95.438,541.559,537.94,0.0
52626.0,STARLINK-3990,PAYLOAD,2023-08-29 19:33:16,15.08823353,0.0001338,53.2177,92.0683,89.3199,270.7947,-0.00018566,-3.24e-05,0.0,0 STARLINK-3990,1 52626U 22052AE  23241.81477450 -.00003240  00000-0 -18566-3 0  9990,2 52626  53.2177  92.0683 0001338  89.3199 270.7947 15.08823353 71664,6917.931,95.439,540.722,538.871,0.0
52626.0,STARLINK-3990,PAYLOAD,2023-08-29 22:44:02,15.0882586,0.0001394,53.2181,91.4739,94.9537,265.1614,-0.00015875,-2.813e-05,0.0,0 STARLINK-3990,1 52626U 22052AE  23241.94725288 -.00002813  00000-0 -15875-3 0  9994,2 52626  53.2181  91.4739 0001394  94.9537 265.1614 15.08825860 72063,6917.924,95.438,540.753,538.824,0.0
52626.0,STARLINK-3990,PAYLOAD,2023-08-30 06:40:58,15.08830356,0.0001328,53.2178,89.9877,88.9304,271.184,-0.00012761,-2.318e-05,0.0,0 STARLINK-3990,1 52626U 22052AE  23242.27845136 -.00002318  00000-0 -12761-3 0  9997,2 52626  53.2178  89.9877 0001328  88.9304 271.1840 15.08830356 72116,6917.91,95.438,540.694,538.856,0.0
52626.0,STARLINK-3990,PAYLOAD,2023-08-30 20:59:33,15.0876007,0.0004423,53.2187,87.3172,101.3112,258.8377,-0.0013589,-0.00021809,0.0,0 STARLINK-3990,1 52626U 22052AE  23242.87469023 -.00021809  00000-0 -13589-2 0  9994,2 52626  53.2187  87.3172 0004423 101.3112 258.8377 15.08760070 71821,6918.125,95.443,543.05,536.93,0.0
52626.0,STARLINK-3990,PAYLOAD,2023-08-30 22:34:55,15.08766872,0.0002328,53.2188,87.02,101.5162,258.6092,-0.0012785,-0.00020538,0.0,0 STARLINK-3990,1 52626U 22052AE  23242.94092303 -.00020538  00000-0 -12785-2 0  9990,2 52626  53.2188  87.0200 0002328 101.5162 258.6092 15.08766872 72212,6918.104,95.442,541.579,538.358,0.0
52626.0,STARLINK-3990,PAYLOAD,2023-09-01 01:36:22,15.08824796,0.0002731,53.2194,81.9712,148.5825,211.5331,0.00014876,2.079e-05,0.0,0 STARLINK-3990,1 52626U 22052AE  23244.06692960  .00002079  00000-0  14876-3 0  9992,2 52626  53.2194  81.9712 0002731 148.5825 211.5331 15.08824796 72387,6917.927,95.439,541.681,537.903,0.0
52626.0,STARLINK-3990,PAYLOAD,2023-09-01 06:22:34,15.08809654,0.0001704,53.2168,81.0737,134.789,225.3241,-0.00027239,-4.617e-05,0.0,0 STARLINK-3990,1 52626U 22052AE  23244.26567397 -.00004617  00000-0 -27239-3 0  9998,2 52626  53.2168  81.0737 0001704 134.7890 225.3241 15.08809654 72417,6917.973,95.439,541.017,538.659,0.0
52626.0,STARLINK-3990,PAYLOAD,2023-09-01 12:43:58,15.08951887,4.38e-05,53.2134,79.8824,279.6733,80.4209,-0.00017202,-3.033e-05,0.0,0 STARLINK-3990,1 52626U 22052AE  23244.53054018 -.00003033  00000-0 -17202-3 0  9999,2 52626  53.2134  79.8824 0000438 279.6733  80.4209 15.08951887 72072,6917.538,95.43,539.706,539.1,0.0
